ONEWEB-0061             
1 45428U 20020E   21304.88094384  .00007429  00000-0  20880-1 0  9992
2 45428  87.8934 356.9389 0001910 111.0234 249.1098 13.11508969 81218
ONEWEB-0081             
1 45429U 20020F   21304.86339345  .00011730  00000-0  32949-1 0  9999
2 45429  87.8943 356.9244 0002214 120.7575 239.3771 13.11560114 81323
ONEWEB-0069             
1 45430U 20020G   21304.85091623 -.00011099  00000-0 -31461-1 0  9992
2 45430  87.8933 356.9732 0001684 130.6224 229.5051 13.11263744 81250
ONEWEB-0031             
1 45431U 20020H   21304.90080398 -.00002390  00000-0 -67823-2 0  9992
2 45431  87.8932 356.9541 0001752 100.9178 259.2147 13.11391823 81258
ONEWEB-0027             
1 45432U 20020J   21304.81281059  .00000047  00000-0  87495-4 0  9994
2 45432  87.9128 341.8128 0002071  91.7364 268.4005 13.17647493 83889
ONEWEB-0064             
1 45433U 20020K   21304.89858353  .00000397  00000-0  10855-2 0  9992
2 45433  87.8936 356.9699 0002646  92.8645 267.2786 13.11417859 81288
ONEWEB-0018             
1 45434U 20020L   21304.85311052 -.00012571  00000-0 -35638-1 0  9993
2 45434  87.8932 356.9551 0002038 155.6056 204.5169 13.11255430 81218
ONEWEB-0083             
1 45435U 20020M   21304.84207844 -.00006234  00000-0 -17659-1 0  9998
2 45435  87.8934 356.9639 0001474 112.5947 247.5337 13.11327767 81253
ONEWEB-0095             
1 45436U 20020N   21304.90298478 -.00002587  00000-0 -73407-2 0  9990
2 45436  87.8931 356.9521 0002118  92.2735 267.8635 13.11389400 81276
ONEWEB-0092             
1 45437U 20020P   21304.87878045  .00005439  00000-0  15282-1 0  9994
2 45437  87.8947 356.9157 0002422  61.2150 298.9221 13.11508650 81371
ONEWEB-0085             
1 45438U 20020Q   21304.91178433 -.00006836  00000-0 -19359-1 0  9997
2 45438  87.8935 356.9680 0002131 102.8602 257.2764 13.11340641 81263
ONEWEB-0096             
1 45439U 20020R   21304.84433132 -.00008927  00000-0 -25292-1 0  9996
2 45439  87.8937 356.9673 0002133 108.3103 251.8257 13.11293869 81241
ONEWEB-0037             
1 45440U 20020S   21304.98152715 -.00005156  00000-0 -14604-1 0  9994
2 45440  87.8930 356.9475 0001329 100.4055 259.7223 13.11361528 81306
ONEWEB-0042             
1 45441U 20020T   21304.88754485  .00004382  00000-0  12311-1 0  9997
2 45441  87.8935 356.9601 0002193  74.4413 285.6957 13.11483960 81263
ONEWEB-0098             
1 45442U 20020U   21304.98371027 -.00004785  00000-0 -13557-1 0  9998
2 45442  87.8931 356.9416 0002193 102.7840 257.3533 13.11356949 81243
ONEWEB-0055             
1 45443U 20020V   21304.89197519  .00000159  00000-0  41288-3 0  9994
2 45443  87.8944 356.9198 0001903 100.0213 260.1130 13.11459492 81206
ONEWEB-0093             
1 45444U 20020W   21304.86775290  .00011786  00000-0  33107-1 0  9997
2 45444  87.8933 356.9682 0001548 124.6333 235.4941 13.11564051 81273
ONEWEB-0029             
1 45445U 20020X   21304.88979278  .00002889  00000-0  81079-2 0  9998
2 45445  87.8938 356.9446 0001666 111.5034 248.6271 13.11450906 81243
ONEWEB-0068             
1 45446U 20020Y   21304.78303839 -.00000330  00000-0 -96739-3 0  9993
2 45446  87.8932 356.9833 0002149 103.5607 256.5760 13.11417381 81175
ONEWEB-0046             
1 45447U 20020Z   21304.85526348 -.00012546  00000-0 -35560-1 0  9999
2 45447  87.8935 356.9752 0002135  68.7036 291.4320 13.11269231 81205
ONEWEB-0063             
1 45448U 20020AA  21304.88536590  .00001995  00000-0  55870-2 0  9994
2 45448  87.8932 356.9681 0001389  96.2466 263.8820 13.11491074 81285
ONEWEB-0019             
1 45449U 20020AB  21304.86121081  .00011624  00000-0  32651-1 0  9999
2 45449  87.8936 356.9516 0001574 119.3065 240.8220 13.11564871 81134
ONEWEB-0094             
1 45450U 20020AC  21304.81433949  .00000081  00000-0  17574-3 0  9999
2 45450  87.9108 341.7419 0002031  94.1565 265.9799 13.17647394 83832
ONEWEB-0087             
1 45451U 20020AD  21304.58904181  .00000285  00000-0  76731-3 0  9991
2 45451  87.8942 357.0353 0002209 113.6399 246.4961 13.11418466 81141
ONEWEB-0082             
1 45452U 20020AE  21304.89639341  .00000370  00000-0  10076-2 0  9993
2 45452  87.8934 356.9260 0002180 108.0986 252.0380 13.11418508 81264
ONEWEB-0050             
1 45453U 20020AF  21304.74150111  .00001047  00000-0  93198-4 0  9991
2 45453  87.5384 312.8176 0024446 328.5572  31.4196 14.94781751 88106
