,OBJECT_NAME,OBJECT_ID,EPOCH,MEAN_MOTION,ECCENTRICITY,INCLINATION,RA_OF_ASC_NODE,ARG_OF_PERICENTER,MEAN_ANOMALY,NORAD_CAT_ID,REV_AT_EPOCH,BSTAR,MEAN_MOTION_DOT,MEAN_MOTION_DDOT,SEMIMAJOR_AXIS,PERIOD,APOAPSIS,PERIAPSIS,OBJECT_TYPE,RCS_SIZE,COUNTRY_CODE,LAUNCH_DATE,SITE
11004,ONEWEB-0061,2020-020E,2021-10-31T21:08:33.547776,13.11508969,0.000191,87.8934,356.9389,111.0234,249.1098,45428,8121,0.02088,7.429e-05,0.0,7595.464,109.797,1218.78,1215.879,0,2,UK,2020.0,TTMTR
11005,ONEWEB-0081,2020-020F,2021-10-31T20:43:17.194080,13.11560114,0.0002214,87.8943,356.9244,120.7575,239.3771,45429,8132,0.032949,0.0001173,0.0,7595.267,109.793,1218.814,1215.45,0,1,UK,2020.0,TTMTR
11006,ONEWEB-0069,2020-020G,2021-10-31T20:25:19.162272,13.11263744,0.0001684,87.8933,356.9732,130.6224,229.5051,45430,8125,-0.031461,-0.00011099,0.0,7596.411,109.818,1219.556,1216.997,0,2,UK,2020.0,TTMTR
11007,ONEWEB-0031,2020-020H,2021-10-31T21:37:09.463872,13.11391823,0.0001752,87.8932,356.9541,100.9178,259.2147,45431,8125,-0.0067823,-2.39e-05,0.0,7595.917,109.807,1219.113,1216.451,0,2,UK,2020.0,TTMTR
11008,ONEWEB-0027,2020-020J,2021-10-31T19:30:26.834976,13.17647493,0.0002071,87.9128,341.8128,91.7364,268.4005,45432,8388,8.7495e-05,4.7e-07,0.0,7571.856,109.286,1195.289,1192.153,0,2,UK,2020.0,TTMTR
11009,ONEWEB-0064,2020-020K,2021-10-31T21:33:57.616992,13.11417859,0.0002646,87.8936,356.9699,92.8645,267.2786,45433,8128,0.0010855,3.97e-06,0.0,7595.816,109.805,1219.691,1215.671,0,2,UK,2020.0,TTMTR
11010,ONEWEB-0018,2020-020L,2021-10-31T20:28:28.748928,13.1125543,0.0002038,87.8932,356.9551,155.6056,204.5169,45434,8121,-0.035638,-0.00012571,0.0,7596.443,109.818,1219.857,1216.76,0,2,UK,2020.0,TTMTR
11011,ONEWEB-0083,2020-020M,2021-10-31T20:12:35.577216,13.11327767,0.0001474,87.8934,356.9639,112.5947,247.5337,45435,8125,-0.017659,-6.234e-05,0.0,7596.164,109.812,1219.149,1216.909,0,2,UK,2020.0,TTMTR
11012,ONEWEB-0095,2020-020N,2021-10-31T21:40:17.884992,13.113894,0.0002118,87.8931,356.9521,92.2735,267.8635,45436,8127,-0.0073407,-2.587e-05,0.0,7595.926,109.807,1219.4,1216.182,0,2,UK,2020.0,TTMTR
11013,ONEWEB-0092,2020-020P,2021-10-31T21:05:26.630880,13.1150865,0.0002422,87.8947,356.9157,61.215,298.9221,45437,8137,0.015282,5.439e-05,0.0,7595.466,109.797,1219.17,1215.491,0,2,UK,2020.0,TTMTR
11014,ONEWEB-0085,2020-020Q,2021-10-31T21:52:58.166112,13.11340641,0.0002131,87.8935,356.968,102.8602,257.2764,45438,8126,-0.019359,-6.836e-05,0.0,7596.114,109.811,1219.598,1216.361,0,2,UK,2020.0,TTMTR
11015,ONEWEB-0096,2020-020R,2021-10-31T20:15:50.226048,13.11293869,0.0002133,87.8937,356.9673,108.3103,251.8257,45439,8124,-0.025292,-8.927e-05,0.0,7596.295,109.815,1219.78,1216.54,0,2,UK,2020.0,TTMTR
11016,ONEWEB-0037,2020-020S,2021-10-31T23:33:23.945760,13.11361528,0.0001329,87.893,356.9475,100.4055,259.7223,45440,8130,-0.014604,-5.156e-05,0.0,7596.034,109.81,1218.908,1216.889,0,2,UK,2020.0,TTMTR
11017,ONEWEB-0042,2020-020T,2021-10-31T21:18:03.875040,13.1148396,0.0002193,87.8935,356.9601,74.4413,285.6957,45441,8126,0.012311,4.382e-05,0.0,7595.561,109.799,1219.092,1215.76,0,2,UK,2020.0,TTMTR
11018,ONEWEB-0098,2020-020U,2021-10-31T23:36:32.567328,13.11356949,0.0002193,87.8931,356.9416,102.784,257.3533,45442,8124,-0.013557,-4.785e-05,0.0,7596.051,109.81,1219.582,1216.251,0,2,UK,2020.0,TTMTR
11019,ONEWEB-0055,2020-020V,2021-10-31T21:24:26.656416,13.11459492,0.0001903,87.8944,356.9198,100.0213,260.113,45443,8120,0.00041288,1.59e-06,0.0,7595.655,109.801,1218.966,1216.075,0,1,UK,2020.0,TTMTR
11020,ONEWEB-0093,2020-020W,2021-10-31T20:49:33.850560,13.11564051,0.0001548,87.8933,356.9682,124.6333,235.4941,45444,8127,0.033107,0.00011786,0.0,7595.252,109.793,1218.292,1215.941,0,2,UK,2020.0,TTMTR
11021,ONEWEB-0029,2020-020X,2021-10-31T21:21:18.096192,13.11450906,0.0001666,87.8938,356.9446,111.5034,248.6271,45445,8124,0.0081079,2.889e-05,0.0,7595.689,109.802,1218.819,1216.288,0,1,UK,2020.0,TTMTR
11022,ONEWEB-0068,2020-020Y,2021-10-31T18:47:34.516896,13.11417381,0.0002149,87.8932,356.9833,103.5607,256.576,45446,8117,-0.00096739,-3.3e-06,0.0,7595.818,109.805,1219.315,1216.051,0,2,UK,2020.0,TTMTR
11023,ONEWEB-0046,2020-020Z,2021-10-31T20:31:34.764672,13.11269231,0.0002135,87.8935,356.9752,68.7036,291.432,45447,8120,-0.03556,-0.00012546,0.0,7596.39,109.817,1219.877,1216.633,0,2,UK,2020.0,TTMTR
11024,ONEWEB-0063,2020-020AA,2021-10-31T21:14:55.613760,13.11491074,0.0001389,87.8932,356.9681,96.2466,263.882,45448,8128,0.005587,1.995e-05,0.0,7595.533,109.799,1218.453,1216.343,0,2,UK,2020.0,TTMTR
11025,ONEWEB-0019,2020-020AB,2021-10-31T20:40:08.613984,13.11564871,0.0001574,87.8936,356.9516,119.3065,240.822,45449,8113,0.032651,0.00011624,0.0,7595.249,109.793,1218.309,1215.918,0,2,UK,2020.0,TTMTR
11026,ONEWEB-0094,2020-020AC,2021-10-31T19:32:38.931936,13.17647394,0.0002031,87.9108,341.7419,94.1565,265.9799,45450,8383,0.00017574,8.1e-07,0.0,7571.856,109.286,1195.259,1192.184,0,1,UK,2020.0,TTMTR
11027,ONEWEB-0087,2020-020AD,2021-10-31T14:08:13.212384,13.11418466,0.0002209,87.8942,357.0353,113.6399,246.4961,45451,8114,0.00076731,2.85e-06,0.0,7595.814,109.805,1219.357,1216.001,0,2,UK,2020.0,TTMTR
11028,ONEWEB-0082,2020-020AE,2021-10-31T21:30:48.390624,13.11418508,0.000218,87.8934,356.926,108.0986,252.038,45452,8126,0.0010076,3.7e-06,0.0,7595.814,109.805,1219.335,1216.023,0,1,UK,2020.0,TTMTR
11029,ONEWEB-0050,2020-020AF,2021-10-31T17:47:45.695904,14.94781751,0.0024446,87.5384,312.8176,328.5572,31.4196,45453,8810,9.3198e-05,1.047e-05,0.0,6961.187,96.335,600.07,566.035,0,1,UK,2020.0,TTMTR
